LEDSAT                  
1 49069U 21073D   24296.73723300  .00036255  00000+0  11297-2 0  9991
2 49069  97.4230   7.5541 0016505 188.8943 171.2010 15.33037053175932
XW-3 (CAS-9)            
1 50466U 21131B   24296.92070966  .00001365  00000+0  44633-3 0  9998
2 50466  98.5232  21.3936 0005233 104.3384 255.8385 14.40122158148380
GREENCUBE               
1 53106U 22080B   24281.96479996 -.00000003  00000+0  00000+0 0  9995
2 53106  70.1376 153.3488 0008243  81.8360 278.3235  6.42557544 52511
CAS-5A (FO-118)         
1 54684U 22167C   24296.94552423  .00084006  00000+0  17527-2 0  9993
2 54684  97.6166  86.0757 0006473  44.9014 315.2757 15.45220109103912
STRATOSAT-TK 1 (RS52S)  
1 57167U 23091B   24296.92030408  .00033938  00000+0  15797-2 0  9996
2 57167  97.5936 350.1062 0013814  43.6174 316.6149 15.19767681 72905
UMKA 1 (RS40S)          
1 57172U 23091G   24296.93457784  .00010644  00000+0  65020-3 0  9997
2 57172  97.5955 347.7978 0017160  49.5830 310.6893 15.10342992 72750
CUBESX-HSE 3 (RS42S)    
1 57178U 23091N   24296.93190797  .00015772  00000+0  89539-3 0  9999
2 57178  97.5987 348.6423 0016910  42.9097 317.3450 15.12899136 72796
MONITOR-4 (RS57S)       
1 57182U 23091S   24296.90407518  .00015133  00000+0  87834-3 0  9990
2 57182  97.5974 348.2985 0017240  43.8090 316.4505 15.12107240 72773
MONITOR-2 (RS39S)       
1 57184U 23091U   24297.16820268  .00009849  00000+0  60726-3 0  9990
2 57184  97.5981 348.4446 0014335  38.8667 321.3590 15.10062698 72801
SVYATOBOR 1 (RS60S)     
1 57187U 23091X   24296.89395615  .00013594  00000+0  78046-3 0  9991
2 57187  97.5986 348.9686 0013450  36.3195 323.8945 15.12576829 72816
VIZARD-METEO (RS38S)    
1 57189U 23091Z   24296.90036982  .00017646  00000+0  95006-3 0  9991
2 57189  97.5974 349.6797 0012087  33.5272 326.6722 15.14828043 72865
NANOZOND 1 (RS49S)      
1 57190U 23091AA  24296.88078018  .00027459  00000+0  12899-2 0  9997
2 57190  97.5944 350.7705 0010057  37.5565 322.6370 15.19537683 72946
POLYTECH-UNIVERSE 3 (R*)
1 57191U 23091AB  24296.91010798  .00009334  00000+0  57432-3 0  9998
2 57191  97.5946 347.8127 0019788  54.4204 305.8866 15.10075007 72752
UTMN 2 (RS27S)          
1 57203U 23091AP  24296.87802257  .00015389  00000+0  84823-3 0  9997
2 57203  97.5975 349.3990 0012641  34.7756 325.4299 15.14016264 72849
ARCCUBE 1 (RS25S)       
1 57205U 23091AR  24296.91888987  .00036038  00000+0  15730-2 0  9992
2 57205  97.5900 351.1796 0009763  36.4095 323.7803 15.22003840 72982
KUZGTU 1 (RS47S)        
1 57217U 23091AV  24296.89074738  .00015827  00000+0  90532-3 0  9990
2 57217  97.5963 348.3872 0016843  43.9806 316.2762 15.12629097 72783
HADES-D (SO-121)        
1 58567U 23174CY  24294.19086658  .00708274  00000+0  52488-2 0  9998
2 58567  97.4311  12.6005 0004703 213.3138 146.7829 15.70825931 53058
SONATE-2                
1 59112U 24043Q   24296.88066447  .00022715  00000+0  93989-3 0  9994
2 59112  97.4924  59.8578 0013516 205.4301 154.6272 15.23876417 35210
MESAT1                  
1 60209U 24125G   24296.53110564  .00020605  00000+0  84971-3 0  9993
2 60209  97.3054 146.2747 0022695 235.4677 124.4418 15.23852698 16770
OOV-CUBE (TUBSAT-30)    
1 60240U 24128F   24296.94049807  .00004736  00000+0  41768-3 0  9991
2 60240  61.9966 158.5030 0020279 348.7786  11.2847 14.97645759 15732
